CUBESAT XI-IV (CO-57)   
1 27848U 03031J   17345.92381118  .00000049  00000-0  42292-4 0  9995
2 27848  98.6978 352.6685 0009340 197.4603 162.6255 14.21690014749420
